NOAA 9                  
1 15427U 84123A   24327.09075574  .00000317  00000+0  18184-3 0  9997
2 15427  99.1247 328.4751 0014869 166.0016 236.0256 14.16775140 62649
